[
  {
    "OBJECT_NAME": "STARLINK-34784",
    "OBJECT_ID": "25195A",
    "EPOCH": "2025-11-11T01:59:15.776736",
    "MEAN_MOTION": 15.39660363,
    "ECCENTRICITY": 0.0002039,
    "INCLINATION": 53.1585,
    "RA_OF_ASC_NODE": 89.8716,
    "ARG_OF_PERICENTER": 83.4328,
    "MEAN_ANOMALY": 276.6909,
    "EPHEMERIS_TYPE": 0,
    "CLASSIFICATION_TYPE": "U",
    "NORAD_CAT_ID": 65458,
    "ELEMENT_SET_NO": 999,
    "REV_AT_EPOCH": 1182,
    "BSTAR": 0.001577,
    "MEAN_MOTION_DOT": 0.00063292,
    "MEAN_MOTION_DDOT": 0.0,
    "TLE_LINE1": "1 65458U 25195A   25315.08282149  .00063292  00000+0  15770-2 0  9993",
    "TLE_LINE2": "2 65458  53.1585  89.8716 0002039  83.4328 276.6909 15.39660363 11821",
    "COMMENT": "Grouped by shell and plane from TLE"
  },
  {
    "OBJECT_NAME": "STARLINK-34867",
    "OBJECT_ID": "25195B",
    "EPOCH": "2025-11-11T02:45:56.714400",
    "MEAN_MOTION": 15.39635175,
    "ECCENTRICITY": 0.0004016,
    "INCLINATION": 53.1578,
    "RA_OF_ASC_NODE": 89.3602,
    "ARG_OF_PERICENTER": 79.424,
    "MEAN_ANOMALY": 280.7217,
    "EPHEMERIS_TYPE": 0,
    "CLASSIFICATION_TYPE": "U",
    "NORAD_CAT_ID": 65459,
    "ELEMENT_SET_NO": 999,
    "REV_AT_EPOCH": 1183,
    "BSTAR": 0.0020827000000000003,
    "MEAN_MOTION_DOT": 0.00083886,
    "MEAN_MOTION_DDOT": 0.0,
    "TLE_LINE1": "1 65459U 25195B   25315.11523975  .00083886  00000+0  20827-2 0  9993",
    "TLE_LINE2": "2 65459  53.1578  89.3602 0004016  79.4240 280.7217 15.39635175 11830",
    "COMMENT": "Grouped by shell and plane from TLE"
  },
  {
    "OBJECT_NAME": "STARLINK-34850",
    "OBJECT_ID": "25195C",
    "EPOCH": "2025-11-11T02:25:52.028832",
    "MEAN_MOTION": 15.39616479,
    "ECCENTRICITY": 0.0001038,
    "INCLINATION": 53.1619,
    "RA_OF_ASC_NODE": 89.2734,
    "ARG_OF_PERICENTER": 66.5543,
    "MEAN_ANOMALY": 293.5571,
    "EPHEMERIS_TYPE": 0,
    "CLASSIFICATION_TYPE": "U",
    "NORAD_CAT_ID": 65460,
    "ELEMENT_SET_NO": 999,
    "REV_AT_EPOCH": 1183,
    "BSTAR": 0.001351,
    "MEAN_MOTION_DOT": 0.00054018,
    "MEAN_MOTION_DDOT": 0.0,
    "TLE_LINE1": "1 65460U 25195C   25315.10129663  .00054018  00000+0  13510-2 0  9996",
    "TLE_LINE2": "2 65460  53.1619  89.2734 0001038  66.5543 293.5571 15.39616479 11838",
    "COMMENT": "Grouped by shell and plane from TLE"
  },
  {
    "OBJECT_NAME": "STARLINK-35111",
    "OBJECT_ID": "25195F",
    "EPOCH": "2025-11-11T02:12:30.042432",
    "MEAN_MOTION": 15.39635529,
    "ECCENTRICITY": 0.0002067,
    "INCLINATION": 53.159,
    "RA_OF_ASC_NODE": 89.2157,
    "ARG_OF_PERICENTER": 73.0933,
    "MEAN_ANOMALY": 287.0299,
    "EPHEMERIS_TYPE": 0,
    "CLASSIFICATION_TYPE": "U",
    "NORAD_CAT_ID": 65463,
    "ELEMENT_SET_NO": 999,
    "REV_AT_EPOCH": 1183,
    "BSTAR": 0.0017014999999999999,
    "MEAN_MOTION_DOT": 0.00068306,
    "MEAN_MOTION_DDOT": 0.0,
    "TLE_LINE1": "1 65463U 25195F   25315.09201438  .00068306  00000+0  17015-2 0  9997",
    "TLE_LINE2": "2 65463  53.1590  89.2157 0002067  73.0933 287.0299 15.39635529 11839",
    "COMMENT": "Grouped by shell and plane from TLE"
  },
  {
    "OBJECT_NAME": "STARLINK-35107",
    "OBJECT_ID": "25195G",
    "EPOCH": "2025-11-11T01:52:05.711232",
    "MEAN_MOTION": 15.39656053,
    "ECCENTRICITY": 0.0001242,
    "INCLINATION": 53.1567,
    "RA_OF_ASC_NODE": 89.8403,
    "ARG_OF_PERICENTER": 51.3082,
    "MEAN_ANOMALY": 308.8034,
    "EPHEMERIS_TYPE": 0,
    "CLASSIFICATION_TYPE": "U",
    "NORAD_CAT_ID": 65464,
    "ELEMENT_SET_NO": 999,
    "REV_AT_EPOCH": 1182,
    "BSTAR": 0.0022489000000000003,
    "MEAN_MOTION_DOT": 0.00090741,
    "MEAN_MOTION_DDOT": 0.0,
    "TLE_LINE1": "1 65464U 25195G   25315.07784388  .00090741  00000+0  22489-2 0  9995",
    "TLE_LINE2": "2 65464  53.1567  89.8403 0001242  51.3082 308.8034 15.39656053 11825",
    "COMMENT": "Grouped by shell and plane from TLE"
  },
  {
    "OBJECT_NAME": "STARLINK-34816",
    "OBJECT_ID": "25195K",
    "EPOCH": "2025-11-11T08:00:03.000384",
    "MEAN_MOTION": 15.35806803,
    "ECCENTRICITY": 0.0001324,
    "INCLINATION": 53.1594,
    "RA_OF_ASC_NODE": 88.2913,
    "ARG_OF_PERICENTER": 69.9273,
    "MEAN_ANOMALY": 78.2921,
    "EPHEMERIS_TYPE": 0,
    "CLASSIFICATION_TYPE": "U",
    "NORAD_CAT_ID": 65467,
    "ELEMENT_SET_NO": 999,
    "REV_AT_EPOCH": 591,
    "BSTAR": 0.0,
    "MEAN_MOTION_DOT": -0.01617834,
    "MEAN_MOTION_DDOT": 0.0,
    "TLE_LINE1": "1 65467U 25195K   25315.33336806 -.01617834  00000+0 -50283-1 0  9998",
    "TLE_LINE2": "2 65467  53.1594  88.2913 0001324  69.9273  78.2921 15.35806803  5917",
    "COMMENT": "Grouped by shell and plane from TLE"
  },
  {
    "OBJECT_NAME": "STARLINK-34924",
    "OBJECT_ID": "25195M",
    "EPOCH": "2025-11-11T01:45:24.598368",
    "MEAN_MOTION": 15.39662625,
    "ECCENTRICITY": 0.0001281,
    "INCLINATION": 53.1585,
    "RA_OF_ASC_NODE": 89.8098,
    "ARG_OF_PERICENTER": 66.437,
    "MEAN_ANOMALY": 293.677,
    "EPHEMERIS_TYPE": 0,
    "CLASSIFICATION_TYPE": "U",
    "NORAD_CAT_ID": 65469,
    "ELEMENT_SET_NO": 999,
    "REV_AT_EPOCH": 1182,
    "BSTAR": 0.0016722999999999998,
    "MEAN_MOTION_DOT": 0.00067176,
    "MEAN_MOTION_DDOT": 0.0,
    "TLE_LINE1": "1 65469U 25195M   25315.07320137  .00067176  00000+0  16723-2 0  9998",
    "TLE_LINE2": "2 65469  53.1585  89.8098 0001281  66.4370 293.6770 15.39662625 11820",
    "COMMENT": "Grouped by shell and plane from TLE"
  },
  {
    "OBJECT_NAME": "STARLINK-34829",
    "OBJECT_ID": "25195N",
    "EPOCH": "2025-11-11T02:32:33.755136",
    "MEAN_MOTION": 15.39639358,
    "ECCENTRICITY": 0.0003121,
    "INCLINATION": 53.1572,
    "RA_OF_ASC_NODE": 89.3001,
    "ARG_OF_PERICENTER": 89.0043,
    "MEAN_ANOMALY": 271.1319,
    "EPHEMERIS_TYPE": 0,
    "CLASSIFICATION_TYPE": "U",
    "NORAD_CAT_ID": 65470,
    "ELEMENT_SET_NO": 999,
    "REV_AT_EPOCH": 1183,
    "BSTAR": 0.0016338,
    "MEAN_MOTION_DOT": 0.00065562,
    "MEAN_MOTION_DDOT": 0.0,
    "TLE_LINE1": "1 65470U 25195N   25315.10594624  .00065562  00000+0  16338-2 0  9997",
    "TLE_LINE2": "2 65470  53.1572  89.3001 0003121  89.0043 271.1319 15.39639358 11838",
    "COMMENT": "Grouped by shell and plane from TLE"
  },
  {
    "OBJECT_NAME": "STARLINK-34799",
    "OBJECT_ID": "25195Q",
    "EPOCH": "2025-11-11T01:45:52.952256",
    "MEAN_MOTION": 15.39660471,
    "ECCENTRICITY": 0.0001116,
    "INCLINATION": 53.1581,
    "RA_OF_ASC_NODE": 89.8129,
    "ARG_OF_PERICENTER": 41.6228,
    "MEAN_ANOMALY": 318.4862,
    "EPHEMERIS_TYPE": 0,
    "CLASSIFICATION_TYPE": "U",
    "NORAD_CAT_ID": 65472,
    "ELEMENT_SET_NO": 999,
    "REV_AT_EPOCH": 1180,
    "BSTAR": 0.0012799,
    "MEAN_MOTION_DOT": 0.00051207,
    "MEAN_MOTION_DDOT": 0.0,
    "TLE_LINE1": "1 65472U 25195Q   25315.07352954  .00051207  00000+0  12799-2 0  9991",
    "TLE_LINE2": "2 65472  53.1581  89.8129 0001116  41.6228 318.4862 15.39660471 11802",
    "COMMENT": "Grouped by shell and plane from TLE"
  },
  {
    "OBJECT_NAME": "STARLINK-34998",
    "OBJECT_ID": "25195S",
    "EPOCH": "2025-11-11T02:45:27.606240",
    "MEAN_MOTION": 15.39639191,
    "ECCENTRICITY": 0.0002606,
    "INCLINATION": 53.1555,
    "RA_OF_ASC_NODE": 89.3545,
    "ARG_OF_PERICENTER": 84.6988,
    "MEAN_ANOMALY": 275.4314,
    "EPHEMERIS_TYPE": 0,
    "CLASSIFICATION_TYPE": "U",
    "NORAD_CAT_ID": 65474,
    "ELEMENT_SET_NO": 999,
    "REV_AT_EPOCH": 1181,
    "BSTAR": 0.0021919,
    "MEAN_MOTION_DOT": 0.00088356,
    "MEAN_MOTION_DDOT": 0.0,
    "TLE_LINE1": "1 65474U 25195S   25315.11490285  .00088356  00000+0  21919-2 0  9997",
    "TLE_LINE2": "2 65474  53.1555  89.3545 0002606  84.6988 275.4314 15.39639191 11817",
    "COMMENT": "Grouped by shell and plane from TLE"
  },
  {
    "OBJECT_NAME": "STARLINK-35093",
    "OBJECT_ID": "25195W",
    "EPOCH": "2025-11-11T02:05:20.394240",
    "MEAN_MOTION": 15.39662217,
    "ECCENTRICITY": 0.0002541,
    "INCLINATION": 53.1563,
    "RA_OF_ASC_NODE": 89.179,
    "ARG_OF_PERICENTER": 75.9066,
    "MEAN_ANOMALY": 284.2221,
    "EPHEMERIS_TYPE": 0,
    "CLASSIFICATION_TYPE": "U",
    "NORAD_CAT_ID": 65478,
    "ELEMENT_SET_NO": 999,
    "REV_AT_EPOCH": 1181,
    "BSTAR": 0.0021587999999999998,
    "MEAN_MOTION_DOT": 0.00087069,
    "MEAN_MOTION_DDOT": 0.0,
    "TLE_LINE1": "1 65478U 25195W   25315.08704160  .00087069  00000+0  21588-2 0  9999",
    "TLE_LINE2": "2 65478  53.1563  89.1790 0002541  75.9066 284.2221 15.39662217 11818",
    "COMMENT": "Grouped by shell and plane from TLE"
  },
  {
    "OBJECT_NAME": "STARLINK-35096",
    "OBJECT_ID": "25195X",
    "EPOCH": "2025-11-11T01:58:38.574624",
    "MEAN_MOTION": 15.39626422,
    "ECCENTRICITY": 0.0001596,
    "INCLINATION": 53.1583,
    "RA_OF_ASC_NODE": 89.1511,
    "ARG_OF_PERICENTER": 77.1362,
    "MEAN_ANOMALY": 282.9821,
    "EPHEMERIS_TYPE": 0,
    "CLASSIFICATION_TYPE": "U",
    "NORAD_CAT_ID": 65479,
    "ELEMENT_SET_NO": 999,
    "REV_AT_EPOCH": 1181,
    "BSTAR": 0.0008391300000000001,
    "MEAN_MOTION_DOT": 0.00033319,
    "MEAN_MOTION_DDOT": 0.0,
    "TLE_LINE1": "1 65479U 25195X   25315.08239091  .00033319  00000+0  83913-3 0  9996",
    "TLE_LINE2": "2 65479  53.1583  89.1511 0001596  77.1362 282.9821 15.39626422 11813",
    "COMMENT": "Grouped by shell and plane from TLE"
  },
  {
    "OBJECT_NAME": "STARLINK-35040",
    "OBJECT_ID": "25195Y",
    "EPOCH": "2025-11-11T01:55:31.422720",
    "MEAN_MOTION": 15.30190007,
    "ECCENTRICITY": 0.0006278,
    "INCLINATION": 53.161,
    "RA_OF_ASC_NODE": 89.1126,
    "ARG_OF_PERICENTER": 76.4977,
    "MEAN_ANOMALY": 283.6723,
    "EPHEMERIS_TYPE": 0,
    "CLASSIFICATION_TYPE": "U",
    "NORAD_CAT_ID": 65480,
    "ELEMENT_SET_NO": 999,
    "REV_AT_EPOCH": 1181,
    "BSTAR": 0.0010354,
    "MEAN_MOTION_DOT": 0.00030435,
    "MEAN_MOTION_DDOT": 0.0,
    "TLE_LINE1": "1 65480U 25195Y   25315.08022480  .00030435  00000+0  10354-2 0  9994",
    "TLE_LINE2": "2 65480  53.1610  89.1126 0006278  76.4977 283.6723 15.30190007 11819",
    "COMMENT": "Grouped by shell and plane from TLE"
  }
]